QIANFAN-25              
1 61558U 24185G   25221.59314953  .00000359  00000+0  21162-3 0  9997
2 61558  88.9771  92.3732 0006917 356.0054   4.1071 14.05757413 51926
QIANFAN-26              
1 61559U 24185H   25221.61435215  .00000225  00000+0  21219-3 0  9991
2 61559  88.9787  93.2737 0007308  42.7737 317.3996 13.77723586 51445
QIANFAN-27              
1 61560U 24185J   25221.59994306  .00000469  00000+0  18644-3 0  9999
2 61560  88.9777  91.6343 0008076 357.3259   2.7891 14.27129243 52310
QIANFAN-28              
1 61561U 24185K   25221.56684789  .00000730  00000+0  29031-3 0  9991
2 61561  88.9794  91.6321 0007160   0.3840 359.7359 14.27693342 52310
QIANFAN-29              
1 61562U 24185L   25222.16283335  .00000179  00000+0  25798-3 0  9994
2 61562  88.9782  94.2000 0011959  56.2400 303.9888 13.50958016 50979
QIANFAN-30              
1 61563U 24185M   25221.59860728  .00000162  00000+0  23629-3 0  9991
2 61563  88.9786  93.7366 0009194  46.3110 313.8801 13.49929761 51181
QIANFAN-31              
1 61564U 24185N   25222.15396535  .00000141  00000+0  17896-3 0  9991
2 61564  88.9769  93.6788 0008817  43.6434 316.5416 13.57906508 51253
QIANFAN-32              
1 61565U 24185P   25221.56245134  .00000108  00000+0  14978-3 0  9995
2 61565  88.9831  93.8367 0011436  66.5950 293.6402 13.50684140 51143
